HST                     
1 20580U 90037B   24258.24390434  .00018489  00000+0  83837-3 0  9995
2 20580  28.4675 107.8107 0002469 305.9800  54.0564 15.19429093690584
POLAR                   
1 23802U 96013A   24256.69618238  .00000312  00000+0  00000+0 0  9990
2 23802  79.1990 233.8059 5923641 230.7834  59.8719  1.29847152136513
SWAS                    
1 25560U 98071A   24258.59372466  .00010548  00000+0  81714-3 0  9997
2 25560  69.8970  71.0033 0006502 181.0336 179.0812 15.01629356400806
CXO                     
1 25867U 99040B   24260.41841978  .00001178  00000+0  00000+0 0  9991
2 25867  43.0906 146.4135 8793537 301.2858   0.7279  0.37805052 26064
XMM-NEWTON              
1 25989U 99066A   24260.16534334  .00000174  00000+0  00000+0 0  9996
2 25989  67.4306 291.5969 5059425  75.7424   0.0686  0.50135915 19808
TERRA                   
1 25994U 99068A   24258.61739451  .00002514  00000+0  53253-3 0  9990
2 25994  98.0400 319.4531 0003317  89.7494  68.5471 14.60060396316098
CLUSTER II-FM7 (SAMBA)  
1 26410U 00041A   24259.79755117  .00000073  00000+0  00000+0 0  9990
2 26410 140.3024   0.6918 7724040 215.7770   0.2599  0.44193123 17455
CLUSTER II-FM5 (RUMBA)  
1 26463U 00045A   24261.10463018  .00003124  00000+0  00000+0 0  9996
2 26463 152.2216  29.4776 8746602 245.4116   0.3309  0.42890124 29784
CLUSTER II-FM8 (TANGO)  
1 26464U 00045B   24259.79761945  .00000076  00000+0  00000+0 0  9992
2 26464 140.3478   0.7301 7723726 215.8172   0.2073  0.44222832 17469
ODIN                    
1 26702U 01007A   24258.54536654  .00031090  00000+0  11939-2 0  9991
2 26702  97.4769 273.5493 0005922 339.8544  20.2460 15.26379315290511
TIMED                   
1 26998U 01055B   24258.58095550  .00006124  00000+0  60659-3 0  9994
2 26998  74.0693  82.2463 0000578 153.4601 206.6611 14.92038948235156
INTEGRAL                
1 27540U 02048A   24257.33410213  .00000332  00000+0  00000+0 0  9995
2 27540  89.9689  16.8592 8633016 279.4588  84.1960  0.37568319 24220
CORIOLIS                
1 27640U 03001A   24258.60348799  .00000686  00000+0  34551-3 0  9990
2 27640  98.7160 264.4047 0012974 256.6711 103.3018 14.19562463123328
SORCE                   
1 27651U 03004A   24258.43348979  .00013472  00000+0  11742-2 0  9999
2 27651  39.9936 300.5013 0020782 150.6281 209.5683 14.96395945175614
MOST                    
1 27843U 03031D   24258.55115666  .00000555  00000+0  27580-3 0  9996
2 27843  98.7092 264.2522 0008948 306.0440  53.9907 14.21031562 99714
SCISAT 1                
1 27858U 03036A   24258.60385858  .00004430  00000+0  59520-3 0  9990
2 27858  73.9344   2.6721 0008034 219.9748 140.0837 14.79599767136631
SWIFT                   
1 28485U 04047A   24258.33500149  .00031673  00000+0  12894-2 0  9993
2 28485  20.5557 261.5140 0006803 352.8823   7.1517 15.22700133 87763
CALIPSO                 
1 29108U 06016B   24258.56179609  .00007561  00000+0  13749-2 0  9991
2 29108  98.4266 242.7164 0002047  97.8032 262.3403 14.66425499979044
HINODE (SOLAR-B)        
1 29479U 06041A   24258.58276401  .00003609  00000+0  65303-3 0  9993
2 29479  98.0887 272.6795 0018656 154.1089 206.1053 14.66861001960886
SHIJIAN-6 02A (SJ-6 02A)
1 29505U 06046A   24258.55146859  .00018356  00000+0  12852-2 0  9993
2 29505  97.7182 285.5243 0004710 154.4506 205.6954 15.05291049975461
SHIJIAN-6 02B (SJ-6 02B)
1 29506U 06046B   24258.57856657  .00005019  00000+0  43027-3 0  9991
2 29506  97.7366 282.6534 0002658  40.9802 319.1620 14.97971163974703
FGRST (GLAST)           
1 33053U 08029A   24258.54914965  .00010324  00000+0  47928-3 0  9999
2 33053  25.5834 315.1791 0009681   0.1069 359.9469 15.17884859898163
SDO                     
1 36395U 10005A   24258.57961253 -.00000062  00000+0  00000+0 0  9998
2 36395  33.3036  96.1938 0001394 169.0566 195.6696  1.00275064 53647
CRYOSAT 2               
1 36508U 10013A   24258.60806392  .00000840  00000+0  20779-3 0  9991
2 36508  92.0235 122.7154 0002880  36.7751 323.3654 14.51909989765137
X-SAT                   
1 37389U 11015C   24258.59870783  .00000752  00000+0  33946-3 0  9997
2 37389  98.2983 257.6818 0015332  66.8826 293.3969 14.24790264696447
GCOM-W1 (SHIZUKU)       
1 38337U 12025A   24258.57298081  .00003661  00000+0  82290-3 0  9994
2 38337  98.2063 197.2677 0002268 104.7823  68.3280 14.57072144655745
NUSTAR                  
1 38358U 12031A   24258.58334491  .00007414  00000+0  54543-3 0  9991
2 38358   6.0268 125.0005 0010379 354.1944  35.7165 14.98033856  1302
NEOSSAT                 
1 39089U 13009D   24258.48926034  .00001001  00000+0  36421-3 0  9999
2 39089  98.4057  83.5207 0011178   2.4731 357.6509 14.35288339604814
BRITE-AUSTRIA           
1 39091U 13009F   24258.51896820  .00001137  00000+0  40634-3 0  9996
2 39091  98.3868  83.6375 0010315 359.8281   0.2900 14.35941431605089
IRIS                    
1 39197U 13033A   24258.54216853  .00006188  00000+0  77127-3 0  9993
2 39197  97.9631  88.7442 0024586 249.7604 110.0966 14.82595746605326
HISAKI (SPRINT-A)       
1 39253U 13049A   24258.28749471  .00000272  00000+0  27642-3 0  9996
2 39253  29.7194 238.1180 0136916 221.2973 137.7174 13.55418750544407
CASSIOPE                
1 39265U 13055A   24258.58655201  .00044017  00000+0  87140-3 0  9990
2 39265  80.9484  95.8740 0474402 348.3263  10.7231 14.76048047571551
STSAT-3                 
1 39422U 13066G   24258.55517497  .00012016  00000+0  10686-2 0  9992
2 39422  97.5294 234.5000 0022708  64.1585 296.1976 14.96035083588178
SWARM B                 
1 39451U 13067A   24258.58889147  .00012578  00000+0  55649-3 0  9994
2 39451  87.7576 175.8179 0003486  88.8397 271.3248 15.21568075585584
SWARM A                 
1 39452U 13067B   24258.54609790  .00017382  00000+0  51761-3 0  9994
2 39452  87.3378 290.8979 0003606  99.8802 260.2857 15.34580443607455
SWARM C                 
1 39453U 13067C   24258.54600436  .00017502  00000+0  52119-3 0  9995
2 39453  87.3375 289.4876 0003647 100.0315 260.1349 15.34579551607411
BRITE-CA1 (TORONTO)     
1 40020U 14033L   24258.61995289  .00006583  00000+0  10492-2 0  9996
2 40020  97.8893  32.6822 0082707 165.8448 194.5104 14.69986319548002
OCO 2                   
1 40059U 14035A   24258.53708462  .00003116  00000+0  70196-3 0  9993
2 40059  98.2061 197.9786 0002014  82.1640 277.9787 14.57063237542759
BRITE-PL2 (HEWELIUSZ)   
1 40119U 14049B   24258.24307529  .00010235  00000+0  10692-2 0  9996
2 40119  97.8849 357.5642 0016614  73.0626 287.2411 14.89784452545838
RESURS-P 2              
1 40360U 14087A   24258.57561535  .00090729  00000+0  82595-3 0  9999
2 40360  97.1458 346.1309 0004009 317.3456  42.7493 15.67639815543492
MMS 1                   
1 40482U 15011A   24258.58334491 -.00002212  00000+0  00000+0 0  9990
2 40482  53.0659   5.5278 9034920 151.1659 271.3832  0.28413113  1303
MMS 2                   
1 40483U 15011B   24258.58334491 -.00002213  00000+0  00000+0 0  9992
2 40483  53.0722   5.5255 9035017 151.1602 270.3255  0.28396686  1309
MMS 3                   
1 40484U 15011C   24258.58334491 -.00002213  00000+0  00000+0 0  9993
2 40484  53.0732   5.5252 9034986 151.1601 270.4485  0.28396609  1302
MMS 4                   
1 40485U 15011D   24257.00001157 -.00002269  00000+0  00000+0 0  9991
2 40485  52.9779   5.6035 9032866 151.1485  98.4453  0.28410201 15603
ASTROSAT                
1 40930U 15052A   24252.12466136  .00005985  00000+0  69572-3 0  9991
2 40930   5.9960 125.1192 0008273 178.5509 181.4643 14.79466686483710
DAMPE                   
1 41173U 15078A   24258.55512125  .00004963  00000+0  18561-3 0  9999
2 41173  97.4365 251.7775 0012765 177.8515 182.2781 15.27725853486621
PISAT                   
1 41784U 16059B   24258.55734200  .00005239  00000+0  94766-3 0  9995
2 41784  97.8322 276.5001 0032015  89.8585 270.6288 14.66433752425759
HXMT (HUIYAN)           
1 42758U 17034A   24258.54493418  .00024749  00000+0  12462-2 0  9992
2 42758  43.0134 139.6382 0012282 346.7697  13.2827 15.16684597400393
FLYING LAPTOP           
1 42831U 17042G   24258.57387610  .00008721  00000+0  78176-3 0  9999
2 42831  97.3901  74.4022 0013775 131.6133 228.6271 14.95930039390495
ZHANGHENG 1 (CSES)      
1 43194U 18015C   24258.55914619  .00037314  00000+0  16724-2 0  9996
2 43194  97.6198  43.2132 0007882 238.6890 121.3574 15.21104876367272
SALSAT                  
1 46495U 20068K   24258.43155431  .00023901  00000+0  12693-2 0  9998
2 46495  97.8247 220.1211 0013684  19.7102 340.4655 15.15235578217816
IXPE                    
1 49954U 21121A   24258.58334491  .00016686  00000+0  12394-2 0  9993
2 49954   0.2296  89.0627 0008547 167.3404 103.7280 14.99894361  5755
